{
  "type": "FeatureCollection",
  "features": [
    {
      "type": "Feature",
      "properties": {
        "norad_id": 31663,
        "name": "FENGYUN 1C DEB",
        "group": "fengyun-1c-debris",
        "lat": -48.498857414473854,
        "lon": -86.03884697574505,
        "alt_km": 668.0841223485513,
        "timestamp": "2025-12-21T03:56:51.118910+00:00",
        "meta_object_name": "FENGYUN 1C DEB",
        "meta_object_id": "1999-025CBV",
        "meta_epoch": "2025-12-20T13:32:10.476960",
        "meta_mean_motion": 14.76437425,
        "meta_eccentricity": 0.0189847,
        "meta_inclination": 98.8391,
        "meta_ra_of_asc_node": 263.1742,
        "meta_arg_of_pericenter": 212.6958,
        "meta_mean_anomaly": 146.2383,
        "meta_ephemeris_type": 0,
        "meta_classification_type": "U",
        "meta_norad_cat_id": 31663,
        "meta_element_set_no": 999,
        "meta_rev_at_epoch": 99395,
        "meta_bstar": 0.00016184,
        "meta_mean_motion_dot": 1.436e-05,
        "meta_mean_motion_ddot": 0,
        "tle_line1": "1 31663U 99025CBV 25354.56401015  .00001436  00000+0  16184-3 0  9991",
        "tle_line2": "2 31663  98.8391 263.1742 0189847 212.6958 146.2383 14.76437425993959"
      },
      "geometry": {
        "type": "Point",
        "coordinates": [
          -86.03884697574505,
          -48.498857414473854
        ]
      }
    },
    {
      "type": "Feature",
      "properties": {
        "norad_id": 31664,
        "name": "FENGYUN 1C DEB",
        "group": "fengyun-1c-debris",
        "lat": -68.6683962471974,
        "lon": 9.689046860861742,
        "alt_km": 947.6414383778501,
        "timestamp": "2025-12-21T03:56:51.118918+00:00",
        "meta_object_name": "FENGYUN 1C DEB",
        "meta_object_id": "1999-025CBW",
        "meta_epoch": "2025-12-19T09:43:14.848608",
        "meta_mean_motion": 14.10303916,
        "meta_eccentricity": 0.0125159,
        "meta_inclination": 98.7526,
        "meta_ra_of_asc_node": 344.7417,
        "meta_arg_of_pericenter": 139.2787,
        "meta_mean_anomaly": 221.7823,
        "meta_ephemeris_type": 0,
        "meta_classification_type": "U",
        "meta_norad_cat_id": 31664,
        "meta_element_set_no": 999,
        "meta_rev_at_epoch": 96095,
        "meta_bstar": 0.00029066,
        "meta_mean_motion_dot": 5.13e-06,
        "meta_mean_motion_ddot": 0,
        "tle_line1": "1 31664U 99025CBW 25353.40503297  .00000513  00000+0  29066-3 0  9997",
        "tle_line2": "2 31664  98.7526 344.7417 0125159 139.2787 221.7823 14.10303916960951"
      },
      "geometry": {
        "type": "Point",
        "coordinates": [
          9.689046860861742,
          -68.6683962471974
        ]
      }
    },
    {
      "type": "Feature",
      "properties": {
        "norad_id": 31665,
        "name": "FENGYUN 1C DEB",
        "group": "fengyun-1c-debris",
        "lat": -80.09714313842059,
        "lon": 158.93387685469966,
        "alt_km": 977.4969224530714,
        "timestamp": "2025-12-21T03:56:51.118927+00:00",
        "meta_object_name": "FENGYUN 1C DEB",
        "meta_object_id": "1999-025CBX",
        "meta_epoch": "2025-12-16T08:14:19.517280",
        "meta_mean_motion": 13.84829693,
        "meta_eccentricity": 0.01897318,
        "meta_inclination": 98.4487,
        "meta_ra_of_asc_node": 32.9474,
        "meta_arg_of_pericenter": 177.2489,
        "meta_mean_anomaly": 182.9759,
        "meta_ephemeris_type": 0,
        "meta_classification_type": "U",
        "meta_norad_cat_id": 31665,
        "meta_element_set_no": 999,
        "meta_rev_at_epoch": 93241,
        "meta_bstar": 0.0010116548,
        "meta_mean_motion_dot": 1.275e-05,
        "meta_mean_motion_ddot": 0,
        "tle_line1": "1 31665U 99025CBX 25350.34328145  .00001275  00000+0  10117-2 0  9997",
        "tle_line2": "2 31665  98.4487  32.9474 0189731 177.2489 182.9759 13.84829693932412"
      },
      "geometry": {
        "type": "Point",
        "coordinates": [
          158.93387685469966,
          -80.09714313842059
        ]
      }
    },
    {
      "type": "Feature",
      "properties": {
        "norad_id": 31666,
        "name": "FENGYUN 1C DEB",
        "group": "fengyun-1c-debris",
        "lat": 77.92308022702025,
        "lon": 9.933776165291047,
        "alt_km": 595.1242958619468,
        "timestamp": "2025-12-21T03:56:51.118936+00:00",
        "meta_object_name": "FENGYUN 1C DEB",
        "meta_object_id": "1999-025CBY",
        "meta_epoch": "2025-12-20T09:42:35.339616",
        "meta_mean_motion": 14.84327002,
        "meta_eccentricity": 0.00208221,
        "meta_inclination": 98.6537,
        "meta_ra_of_asc_node": 143.7281,
        "meta_arg_of_pericenter": 126.2949,
        "meta_mean_anomaly": 234.019,
        "meta_ephemeris_type": 0,
        "meta_classification_type": "U",
        "meta_norad_cat_id": 31666,
        "meta_element_set_no": 999,
        "meta_rev_at_epoch": 97385,
        "meta_bstar": 0.0025103019,
        "meta_mean_motion_dot": 0.00021141,
        "meta_mean_motion_ddot": 0,
        "tle_line1": "1 31666U 99025CBY 25354.40457569  .00021141  00000+0  25103-2 0  9997",
        "tle_line2": "2 31666  98.6537 143.7281 0020822 126.2949 234.0190 14.84327002973857"
      },
      "geometry": {
        "type": "Point",
        "coordinates": [
          9.933776165291047,
          77.92308022702025
        ]
      }
    },
    {
      "type": "Feature",
      "properties": {
        "norad_id": 31667,
        "name": "FENGYUN 1C DEB",
        "group": "fengyun-1c-debris",
        "lat": 7.450042316020818,
        "lon": 28.634724762031123,
        "alt_km": 827.1877726600633,
        "timestamp": "2025-12-21T03:56:51.118945+00:00",
        "meta_object_name": "FENGYUN 1C DEB",
        "meta_object_id": "1999-025CBZ",
        "meta_epoch": "2025-12-19T08:58:22.158048",
        "meta_mean_motion": 14.23508815,
        "meta_eccentricity": 0.0051766,
        "meta_inclination": 99.0843,
        "meta_ra_of_asc_node": 205.588,
        "meta_arg_of_pericenter": 68.7145,
        "meta_mean_anomaly": 291.9549,
        "meta_ephemeris_type": 0,
        "meta_classification_type": "U",
        "meta_norad_cat_id": 31667,
        "meta_element_set_no": 999,
        "meta_rev_at_epoch": 56087,
        "meta_bstar": 0.00019687,
        "meta_mean_motion_dot": 4.07e-06,
        "meta_mean_motion_ddot": 0,
        "tle_line1": "1 31667U 99025CBZ 25353.37386757  .00000407  00000+0  19687-3 0  9996",
        "tle_line2": "2 31667  99.0843 205.5880 0051766  68.7145 291.9549 14.23508815560874"
      },
      "geometry": {
        "type": "Point",
        "coordinates": [
          28.634724762031123,
          7.450042316020818
        ]
      }
    },
    {
      "type": "Feature",
      "properties": {
        "norad_id": 31672,
        "name": "FENGYUN 1C DEB",
        "group": "fengyun-1c-debris",
        "lat": 0.057814787911080766,
        "lon": -176.6988006375651,
        "alt_km": 669.49569571348,
        "timestamp": "2025-12-21T03:56:51.118954+00:00",
        "meta_object_name": "FENGYUN 1C DEB",
        "meta_object_id": "1999-025CCE",
        "meta_epoch": "2025-12-20T11:23:52.148832",
        "meta_mean_motion": 14.51018489,
        "meta_eccentricity": 0.01078222,
        "meta_inclination": 98.956,
        "meta_ra_of_asc_node": 182.5765,
        "meta_arg_of_pericenter": 318.553,
        "meta_mean_anomaly": 40.752,
        "meta_ephemeris_type": 0,
        "meta_classification_type": "U",
        "meta_norad_cat_id": 31672,
        "meta_element_set_no": 999,
        "meta_rev_at_epoch": 64983,
        "meta_bstar": 0.0010644332,
        "meta_mean_motion_dot": 4.486e-05,
        "meta_mean_motion_ddot": 0,
        "tle_line1": "1 31672U 99025CCE 25354.47490913  .00004486  00000+0  10644-2 0  9998",
        "tle_line2": "2 31672  98.9560 182.5765 0107822 318.5530  40.7520 14.51018489649836"
      },
      "geometry": {
        "type": "Point",
        "coordinates": [
          -176.6988006375651,
          0.057814787911080766
        ]
      }
    },
    {
      "type": "Feature",
      "properties": {
        "norad_id": 31673,
        "name": "FENGYUN 1C DEB",
        "group": "fengyun-1c-debris",
        "lat": 43.57479671737623,
        "lon": 19.353744406196746,
        "alt_km": 812.4960108287323,
        "timestamp": "2025-12-21T03:56:51.118963+00:00",
        "meta_object_name": "FENGYUN 1C DEB",
        "meta_object_id": "1999-025CCF",
        "meta_epoch": "2025-12-17T12:07:26.297472",
        "meta_mean_motion": 14.31948399,
        "meta_eccentricity": 0.01255829,
        "meta_inclination": 99.3741,
        "meta_ra_of_asc_node": 186.3601,
        "meta_arg_of_pericenter": 35.3112,
        "meta_mean_anomaly": 325.6307,
        "meta_ephemeris_type": 0,
        "meta_classification_type": "U",
        "meta_norad_cat_id": 31673,
        "meta_element_set_no": 999,
        "meta_rev_at_epoch": 64959,
        "meta_bstar": 0.00017748965,
        "meta_mean_motion_dot": 4.66e-06,
        "meta_mean_motion_ddot": 0,
        "tle_line1": "1 31673U 99025CCF 25351.50516548  .00000466  00000+0  17749-3 0  9991",
        "tle_line2": "2 31673  99.3741 186.3601 0125582  35.3112 325.6307 14.31948399649598"
      },
      "geometry": {
        "type": "Point",
        "coordinates": [
          19.353744406196746,
          43.57479671737623
        ]
      }
    }
  ]
}